ION SCV-004             
1 50993U 22002K   26068.68892644  .00006538  00000+0  23198-3 0  9998
2 50993  97.2961 128.2294 0007216   1.6783 358.4480 15.29369331230088
STARLINK-31102          
1 58715U 24002L   26068.76178127  .00002101  00000+0  83086-4 0  9997
2 58715  53.1590 229.7879 0001240  98.4344 261.6797 15.30183866122020
